0 COSMOS 970 DEB
1 14444U 77121BG  13282.96920406  .00000728  00000-0  91319-3 0  3411
2 14444 065.7992 109.0371 0049423 037.8945 038.0983 13.69823856600712
0 COSMOS 970 DEB
1 14444U 77121BG  13283.61097666  .00001082  00000-0  12227-2 0  3433
2 14444 065.7990 107.4672 0049226 037.7964 322.6993 13.69823570600803
0 COSMOS 970 DEB
1 14444U 77121BG  13286.46424784  .00000693  00000-0  87434-3 0  3423
2 14444 065.7994 100.4659 0049405 035.9684 353.7055 13.69829645601199
0 COSMOS 970 DEB
1 14444U 77121BG  13287.48673410  .00000747  00000-0  93428-3 0  3439
2 14444 065.7996 097.9584 0049462 035.3753 356.0812 13.69831698601336
0 COSMOS 970 DEB
1 14444U 77121BG  13288.59033561  .00000854  00000-0  10562-2 0  3446
2 14444 065.7999 095.2521 0049609 034.7368 038.4824 13.69834035601487
0 COSMOS 970 DEB
1 14444U 77121BG  13289.84040263  .00000822  00000-0  10199-2 0  3454
2 14444 065.8001 092.1868 0049699 034.0220 083.1799 13.69836652601655
0 COSMOS 970 DEB
1 14444U 77121BG  13290.92804522  .00000822  00000-0  10190-2 0  3463
2 14444 065.8003 089.5196 0049735 033.3856 046.9071 13.69838359601802
0 COSMOS 970 DEB
1 14444U 77121BG  13292.31469608  .00000874  00000-0  10780-2 0  3473
2 14444 065.8005 086.1192 0049811 032.6011 045.1819 13.69840509601994
0 COSMOS 970 DEB
1 14444U 77121BG  13293.40062403  .00000920  00000-0  11296-2 0  3482
2 14444 065.8005 083.4565 0049843 031.9616 000.4730 13.69842472602141
0 COSMOS 970 DEB
1 14444U 77121BG  13294.42261120  .00000900  00000-0  11069-2 0  3499
2 14444 065.8006 080.9504 0049872 031.3522 000.4515 13.69844604602284
0 COSMOS 970 DEB
1 14444U 77121BG  13296.17995094  .00000940  00000-0  11522-2 0  3507
2 14444 065.8007 076.6411 0049944 030.3033 026.8754 13.69848062602526
